{
  "type": "FeatureCollection",
  "features": [
    {
      "type": "Feature",
      "properties": {
        "norad_id": 43057,
        "name": "GSAT0217 (GALILEO 21)",
        "group": "gnss",
        "lat": 16.441719163286358,
        "lon": 34.405771051885736,
        "alt_km": 23227.32994189091,
        "timestamp": "2025-12-26T03:50:12.336562+00:00",
        "meta_object_name": "GSAT0217 (GALILEO 21)",
        "meta_object_id": "2017-079C",
        "meta_epoch": "2025-12-24T03:21:20.619936",
        "meta_mean_motion": 1.70473665,
        "meta_eccentricity": 0.00026088,
        "meta_inclination": 55.1247,
        "meta_ra_of_asc_node": 226.3216,
        "meta_arg_of_pericenter": 4.3447,
        "meta_mean_anomaly": 355.754,
        "meta_ephemeris_type": 0,
        "meta_classification_type": "U",
        "meta_norad_cat_id": 43057,
        "meta_element_set_no": 999,
        "meta_rev_at_epoch": 5000,
        "meta_bstar": 0,
        "meta_mean_motion_dot": 7.2e-07,
        "meta_mean_motion_ddot": 0,
        "tle_line1": "1 43057U 17079C   25358.13982199  .00000072  00000+0  00000+0 0  9995",
        "tle_line2": "2 43057  55.1247 226.3216 0002608   4.3447 355.7540  1.70473665 50008"
      },
      "geometry": {
        "type": "Point",
        "coordinates": [
          34.405771051885736,
          16.441719163286358
        ]
      }
    },
    {
      "type": "Feature",
      "properties": {
        "norad_id": 43058,
        "name": "GSAT0218 (GALILEO 22)",
        "group": "gnss",
        "lat": 20.066532455640935,
        "lon": -118.96733577067272,
        "alt_km": 23217.2670351858,
        "timestamp": "2025-12-26T03:50:12.336573+00:00",
        "meta_object_name": "GSAT0218 (GALILEO 22)",
        "meta_object_id": "2017-079D",
        "meta_epoch": "2025-12-22T00:19:29.615808",
        "meta_mean_motion": 1.70473914,
        "meta_eccentricity": 0.00024164,
        "meta_inclination": 55.1256,
        "meta_ra_of_asc_node": 226.3779,
        "meta_arg_of_pericenter": 315.4078,
        "meta_mean_anomaly": 44.6792,
        "meta_ephemeris_type": 0,
        "meta_classification_type": "U",
        "meta_norad_cat_id": 43058,
        "meta_element_set_no": 999,
        "meta_rev_at_epoch": 4999,
        "meta_bstar": 0,
        "meta_mean_motion_dot": 7.3e-07,
        "meta_mean_motion_ddot": 0,
        "tle_line1": "1 43058U 17079D   25356.01353722  .00000073  00000+0  00000+0 0  9996",
        "tle_line2": "2 43058  55.1256 226.3779 0002416 315.4078  44.6792  1.70473914 49992"
      },
      "geometry": {
        "type": "Point",
        "coordinates": [
          -118.96733577067272,
          20.066532455640935
        ]
      }
    },
    {
      "type": "Feature",
      "properties": {
        "norad_id": 43107,
        "name": "BEIDOU-3 M7 (C27)",
        "group": "gnss",
        "lat": 12.579709876717283,
        "lon": 119.17146595419135,
        "alt_km": 21527.603996203445,
        "timestamp": "2025-12-26T03:50:12.336588+00:00",
        "meta_object_name": "BEIDOU-3 M7 (C27)",
        "meta_object_id": "2018-003A",
        "meta_epoch": "2025-12-23T05:31:08.538816",
        "meta_mean_motion": 1.86232625,
        "meta_eccentricity": 0.0002961,
        "meta_inclination": 54.4874,
        "meta_ra_of_asc_node": 308.4506,
        "meta_arg_of_pericenter": 66.5422,
        "meta_mean_anomaly": 293.4915,
        "meta_ephemeris_type": 0,
        "meta_classification_type": "U",
        "meta_norad_cat_id": 43107,
        "meta_element_set_no": 999,
        "meta_rev_at_epoch": 5407,
        "meta_bstar": 0,
        "meta_mean_motion_dot": -5.5e-07,
        "meta_mean_motion_ddot": 0,
        "tle_line1": "1 43107U 18003A   25357.22995994 -.00000055  00000+0  00000+0 0  9997",
        "tle_line2": "2 43107  54.4874 308.4506 0002961  66.5422 293.4915  1.86232625 54072"
      },
      "geometry": {
        "type": "Point",
        "coordinates": [
          119.17146595419135,
          12.579709876717283
        ]
      }
    },
    {
      "type": "Feature",
      "properties": {
        "norad_id": 43108,
        "name": "BEIDOU-3 M8 (C28)",
        "group": "gnss",
        "lat": -17.10352289117526,
        "lon": 140.99962040762023,
        "alt_km": 21527.85211178894,
        "timestamp": "2025-12-26T03:50:12.336600+00:00",
        "meta_object_name": "BEIDOU-3 M8 (C28)",
        "meta_object_id": "2018-003B",
        "meta_epoch": "2025-12-24T05:58:21.185184",
        "meta_mean_motion": 1.86231107,
        "meta_eccentricity": 0.00045887,
        "meta_inclination": 54.4794,
        "meta_ra_of_asc_node": 308.398,
        "meta_arg_of_pericenter": 279.3969,
        "meta_mean_anomaly": 80.5568,
        "meta_ephemeris_type": 0,
        "meta_classification_type": "U",
        "meta_norad_cat_id": 43108,
        "meta_element_set_no": 999,
        "meta_rev_at_epoch": 5410,
        "meta_bstar": 0,
        "meta_mean_motion_dot": -5.4e-07,
        "meta_mean_motion_ddot": 0,
        "tle_line1": "1 43108U 18003B   25358.24885631 -.00000054  00000+0  00000+0 0  9996",
        "tle_line2": "2 43108  54.4794 308.3980 0004588 279.3969  80.5568  1.86231107 54103"
      },
      "geometry": {
        "type": "Point",
        "coordinates": [
          140.99962040762023,
          -17.10352289117526
        ]
      }
    },
    {
      "type": "Feature",
      "properties": {
        "norad_id": 43207,
        "name": "BEIDOU-3 M4 (C22)",
        "group": "gnss",
        "lat": -56.165391505889595,
        "lon": -30.37266411064385,
        "alt_km": 21535.722794739697,
        "timestamp": "2025-12-26T03:50:12.336611+00:00",
        "meta_object_name": "BEIDOU-3 M4 (C22)",
        "meta_object_id": "2018-018A",
        "meta_epoch": "2025-12-24T16:34:51.783168",
        "meta_mean_motion": 1.86231226,
        "meta_eccentricity": 0.0004181,
        "meta_inclination": 56.4953,
        "meta_ra_of_asc_node": 68.9094,
        "meta_arg_of_pericenter": 3.1896,
        "meta_mean_anomaly": 356.8673,
        "meta_ephemeris_type": 0,
        "meta_classification_type": "U",
        "meta_norad_cat_id": 43207,
        "meta_element_set_no": 999,
        "meta_rev_at_epoch": 5349,
        "meta_bstar": 0,
        "meta_mean_motion_dot": -2.4e-07,
        "meta_mean_motion_ddot": 0,
        "tle_line1": "1 43207U 18018A   25358.69087712 -.00000024  00000+0  00000+0 0  9992",
        "tle_line2": "2 43207  56.4953  68.9094 0004181   3.1896 356.8673  1.86231226 53497"
      },
      "geometry": {
        "type": "Point",
        "coordinates": [
          -30.37266411064385,
          -56.165391505889595
        ]
      }
    },
    {
      "type": "Feature",
      "properties": {
        "norad_id": 43208,
        "name": "BEIDOU-3 M3 (C21)",
        "group": "gnss",
        "lat": -32.57006665692598,
        "lon": -86.11763973548261,
        "alt_km": 21533.375193007843,
        "timestamp": "2025-12-26T03:50:12.336622+00:00",
        "meta_object_name": "BEIDOU-3 M3 (C21)",
        "meta_object_id": "2018-018B",
        "meta_epoch": "2025-12-24T05:17:24.775296",
        "meta_mean_motion": 1.86231452,
        "meta_eccentricity": 0.00071097,
        "meta_inclination": 56.4941,
        "meta_ra_of_asc_node": 68.9291,
        "meta_arg_of_pericenter": 313.8135,
        "meta_mean_anomaly": 46.182,
        "meta_ephemeris_type": 0,
        "meta_classification_type": "U",
        "meta_norad_cat_id": 43208,
        "meta_element_set_no": 999,
        "meta_rev_at_epoch": 5348,
        "meta_bstar": 0,
        "meta_mean_motion_dot": -2.4e-07,
        "meta_mean_motion_ddot": 0,
        "tle_line1": "1 43208U 18018B   25358.22042564 -.00000024  00000+0  00000+0 0  9998",
        "tle_line2": "2 43208  56.4941  68.9291 0007109 313.8135  46.1820  1.86231452 53487"
      },
      "geometry": {
        "type": "Point",
        "coordinates": [
          -86.11763973548261,
          -32.57006665692598
        ]
      }
    },
    {
      "type": "Feature",
      "properties": {
        "norad_id": 43245,
        "name": "BEIDOU-3 M9 (C29)",
        "group": "gnss",
        "lat": 51.82012012824197,
        "lon": 11.714656070974092,
        "alt_km": 21525.782088986532,
        "timestamp": "2025-12-26T03:50:12.336633+00:00",
        "meta_object_name": "BEIDOU-3 M9 (C29)",
        "meta_object_id": "2018-029A",
        "meta_epoch": "2025-12-24T23:22:05.655648",
        "meta_mean_motion": 1.86228303,
        "meta_eccentricity": 0.00015566,
        "meta_inclination": 54.3546,
        "meta_ra_of_asc_node": 306.0421,
        "meta_arg_of_pericenter": 290.0356,
        "meta_mean_anomaly": 69.9568,
        "meta_ephemeris_type": 0,
        "meta_classification_type": "U",
        "meta_norad_cat_id": 43245,
        "meta_element_set_no": 999,
        "meta_rev_at_epoch": 5265,
        "meta_bstar": 0,
        "meta_mean_motion_dot": -5.2e-07,
        "meta_mean_motion_ddot": 0,
        "tle_line1": "1 43245U 18029A   25358.97367657 -.00000052  00000+0  00000+0 0  9997",
        "tle_line2": "2 43245  54.3546 306.0421 0001556 290.0356  69.9568  1.86228303 52659"
      },
      "geometry": {
        "type": "Point",
        "coordinates": [
          11.714656070974092,
          51.82012012824197
        ]
      }
    }
  ]
}